ORBCOMM FM103 [+]       
1 40091U 14040F   24104.46952441  .00001075  00000+0  27696-3 0  9994
2 40091  47.0047 244.5705 0001361 129.1903 230.9103 14.56454980501427
ORBCOMM FM114 [+]       
1 41179U 15081A   24105.12083286  .00000978  00000+0  25536-3 0  9996
2 41179  47.0017 150.7960 0001762 213.1041 146.9734 14.56470756441939
ORBCOMM FM119 [-]       
1 41180U 15081B   24104.95319184  .00001083  00000+0  27882-3 0  9991
2 41180  47.0015  60.7713 0001985 260.9734  99.0926 14.56442987443119
ORBCOMM FM105 [-]       
1 41181U 15081C   24105.18901850  .00000545  00000+0  20224-3 0  9990
2 41181  47.0033  24.1747 0001914 219.0314 141.0428 14.44313770438823
ORBCOMM FM110 [+]       
1 41182U 15081D   24104.48058207  .00001031  00000+0  26706-3 0  9994
2 41182  47.0007 153.2219 0002179 326.0127  34.0618 14.56470173441660
ORBCOMM FM118 [+]       
1 41183U 15081E   24103.97760063  .00000935  00000+0  24575-3 0  9992
2 41183  47.0030 155.8899 0002346 323.2698  36.8026 14.56468053441697
ORBCOMM FM112 [+]       
1 41184U 15081F   24104.24500918  .00000904  00000+0  23894-3 0  9994
2 41184  46.9997  63.3335 0001442 252.3795 107.6932 14.56450909442956
ORBCOMM FM113 [+]       
1 41185U 15081G   24104.97670030  .00001147  00000+0  29293-3 0  9997
2 41185  47.0017  60.1484 0001469 272.8389  87.2327 14.56453761443116
